ORBCOMM FM37            
1 33064U 08031E   24292.40754437  .00007493  00000+0  10590-2 0  9990
2 33064  48.4403  51.5725 0004809  52.0607 352.5001 14.77829665878269
ORBCOMM FM40            
1 33065U 08031F   24292.45481632  .00009304  00000+0  12568-2 0  9990
2 33065  48.4430  38.9923 0005961  63.0173  23.7519 14.79515007878332
VESSELSAT 1             
1 37840U 11058C   24292.22361552  .00000768  00000+0  27467-3 0  9991
2 37840  19.9610 117.8969 0013737  45.4251 314.7273 14.11239418672087
ORBCOMM FM109           
1 40086U 14040A   24292.45902153  .00003899  00000+0  88856-3 0  9991
2 40086  47.0027  77.2764 0002753 271.7766  88.2804 14.57368665545797
ORBCOMM FM107           
1 40087U 14040B   24292.42618927  .00004456  00000+0  10112-2 0  9991
2 40087  47.0044  78.4386 0002199 251.7072 108.3574 14.57315128545864
ORBCOMM FM106           
1 40088U 14040C   24292.35277963  .00005608  00000+0  99718-3 0  9995
2 40088  47.0594 279.8901 0017701  21.3712 338.7914 14.68023327547927
ORBCOMM FM111           
1 40089U 14040D   24292.36651559  .00008794  00000+0  10719-2 0  9996
2 40089  47.0015 161.4632 0031810 118.1935 242.2179 14.83496483554285
ORBCOMM FM104           
1 40090U 14040E   24292.49771307  .00004189  00000+0  98354-3 0  9992
2 40090  47.0033 108.8642 0017206 183.0986 176.9795 14.55763440545391
